{
"type": "FeatureCollection",
"name": "subways",
"crs": { "type": "name", "properties": { "name": "urn:ogc:def:crs:OGC:1.3:CRS84" } },
"features": [
{ "type": "Feature", "properties": { "objectid": 1, "zone": "06", "ward": "071", "road_name": "Perambur High Road", "region": "Central", "area_name": "Jamaliya", "locality": "Jamaliya", "road_id": "91588", "category": "Vechicular Subway", "st_length(shape)": 76.816109347317678 }, "geometry": { "type": "LineString", "coordinates": [ [ 80.241996062379954, 13.107258585996865 ], [ 80.241996891524977, 13.107466244450668 ], [ 80.242126246230953, 13.10746758131458 ], [ 80.242127377209869, 13.107257536102814 ], [ 80.241995574594768, 13.107258584247013 ] ] } },
{ "type": "Feature", "properties": { "objectid": 2, "zone": "07", "ward": "083", "road_name": "N R S ROAD", "region": "Central", "area_name": "KORATTUR", "locality": "NRS ROAD", "road_id": "25058", "category": "Vechicular Subway", "st_length(shape)": 446.77956459192097 }, "geometry": { "type": "LineString", "coordinates": [ [ 80.185370241914185, 13.114718996280526 ], [ 80.1854951266033, 13.11471870231912 ], [ 80.185499347786816, 13.11385150674065 ], [ 80.185493481788015, 13.113372243365255 ], [ 80.185499766401733, 13.11287780230988 ], [ 80.185390745062236, 13.112879896800656 ], [ 80.185386106162113, 13.113270518139394 ], [ 80.185404166790903, 13.113819779791092 ], [ 80.185370241914185, 13.114718996280526 ] ] } },
{ "type": "Feature", "properties": { "objectid": 3, "zone": "01", "ward": "006", "road_name": "DR AMBEDKAR NAGAR MAIN ROAD", "region": "North", "area_name": "TIRUVOTTRIYUR", "locality": "DR AMBEDKAR NAGAR", "road_id": "25668", "category": "Vechicular Subway", "st_length(shape)": 236.93031659323935 }, "geometry": { "type": "LineString", "coordinates": [ [ 80.303248947669047, 13.172885063633501 ], [ 80.303247766384459, 13.17292295554703 ], [ 80.30314854207144, 13.172924791495401 ], [ 80.303004194483378, 13.172928609463302 ], [ 80.302964733289571, 13.172931564998995 ], [ 80.302864704086033, 13.17294162816485 ], [ 80.302850437941032, 13.172944651925247 ], [ 80.302776554203874, 13.172963972677417 ], [ 80.302696397531051, 13.172991889757796 ], [ 80.30250142628347, 13.17307786703306 ], [ 80.302393482922312, 13.173123889913629 ], [ 80.302350656639447, 13.173142337724185 ], [ 80.302280062532844, 13.173172768605243 ], [ 80.302261639883, 13.173143268380349 ], [ 80.302308203157423, 13.173124015867119 ], [ 80.302486030956132, 13.173048422776082 ], [ 80.302679649340917, 13.172957082842631 ], [ 80.302747462263355, 13.172934658733732 ], [ 80.302855214283369, 13.172904807734419 ], [ 80.302869869398918, 13.172902335895168 ], [ 80.302921152421888, 13.172897809437909 ], [ 80.30297976030765, 13.172892945354937 ], [ 80.303018955600095, 13.172888746026965 ], [ 80.303079016960012, 13.172888191481251 ], [ 80.303161054705001, 13.172885902449481 ], [ 80.303248947669047, 13.172885063633501 ] ] } },
{ "type": "Feature", "properties": { "objectid": 4, "zone": "01", "ward": "002", "road_name": "KH ROAD", "region": "North", "area_name": "KATHIVAKKAM", "locality": "KH ROAD", "road_id": "23446", "category": "Vechicular Subway", "st_length(shape)": 152.89940296810701 }, "geometry": { "type": "LineString", "coordinates": [ [ 80.319478883569076, 13.222282073128962 ], [ 80.319564659204005, 13.222220687525802 ], [ 80.319621258456792, 13.222293662015511 ], [ 80.319722671964144, 13.222374923251568 ], [ 80.319739745344449, 13.222389077918436 ], [ 80.319836581037123, 13.222447749030078 ], [ 80.319861697540716, 13.222474583333423 ], [ 80.319882171324039, 13.222505107795508 ], [ 80.319897469337619, 13.222538527690327 ], [ 80.319907193286824, 13.222573972907224 ], [ 80.319911090001753, 13.222610520604851 ], [ 80.319871038736451, 13.22265770849204 ], [ 80.319835363819934, 13.222708286163805 ], [ 80.319826952896022, 13.222656418572132 ], [ 80.319812877487877, 13.222605793740351 ], [ 80.31979330904403, 13.222557028314975 ], [ 80.31976848592204, 13.222510716293623 ], [ 80.319738710485225, 13.222467421789705 ], [ 80.319698085973158, 13.222435145730371 ], [ 80.319634224739602, 13.222392869752953 ], [ 80.319589376349043, 13.222363086010693 ], [ 80.319516879610646, 13.222317341750454 ], [ 80.319478883569076, 13.222282073128962 ] ] } },
{ "type": "Feature", "properties": { "objectid": 5, "zone": "05", "ward": "052", "road_name": "Mongear Chouttry Road", "region": "North", "area_name": "Royapuram", "locality": "Royapuram", "road_id": "2530", "category": "Vechicular Subway", "st_length(shape)": 790.43780134031408 }, "geometry": { "type": "LineString", "coordinates": [ [ 80.286479427015479, 13.10559593493757 ], [ 80.286409542577957, 13.105581028090906 ], [ 80.286176050672694, 13.106549351806297 ], [ 80.286159569282191, 13.106978211634752 ], [ 80.286171021903741, 13.107070156192552 ], [ 80.286186221398339, 13.107149116146056 ], [ 80.286206959904987, 13.107257428488669 ], [ 80.286245288323215, 13.107526078728943 ], [ 80.286274540163802, 13.107627386373151 ], [ 80.286302384344367, 13.107705215764028 ], [ 80.286359272854682, 13.107868053979601 ], [ 80.286557660395275, 13.108477461833951 ], [ 80.286700510491741, 13.108878579410796 ], [ 80.286776222300546, 13.108862041938211 ], [ 80.286535348938571, 13.108173568698113 ], [ 80.286323377972565, 13.107497616130894 ], [ 80.286286437451423, 13.107221896572108 ], [ 80.286257208967029, 13.107121411178408 ], [ 80.286243591405622, 13.107038778333399 ], [ 80.286236437222712, 13.106980742757139 ], [ 80.286235255938138, 13.106966983004964 ], [ 80.286235306243768, 13.106949638734305 ], [ 80.286253570790151, 13.106565769571061 ], [ 80.286479427015479, 13.10559593493757 ] ] } },
{ "type": "Feature", "properties": { "objectid": 6, "zone": "05", "ward": "060", "road_name": "Light House Salai (East)", "region": "North", "area_name": "V.O.C Nagar", "locality": "Mannady", "road_id": "10531", "category": "Vechicular Subway", "st_length(shape)": 217.12047665769234 }, "geometry": { "type": "LineString", "coordinates": [ [ 80.289213062408834, 13.085683878290638 ], [ 80.289264703859587, 13.08590249665634 ], [ 80.289316781891543, 13.086125131017488 ], [ 80.289367378601597, 13.0863535024606 ], [ 80.289410802264115, 13.086530179563654 ], [ 80.289452901809895, 13.086658047263059 ], [ 80.289534213716166, 13.086899423100363 ], [ 80.289638777615238, 13.087202585630182 ], [ 80.289738297473988, 13.087462983044203 ], [ 80.28975338737412, 13.087506377774057 ] ] } },
{ "type": "Feature", "properties": { "objectid": 7, "zone": "05", "ward": "060", "road_name": "Light House Salai (East)", "region": "North", "area_name": "V.O.C Nagar", "locality": "Mannady", "road_id": "10531", "category": "Vechicular Subway", "st_length(shape)": 218.20405124935829 }, "geometry": { "type": "LineString", "coordinates": [ [ 80.289309722031717, 13.085748563545454 ], [ 80.289439075839354, 13.085835126979378 ], [ 80.289484112876139, 13.085891923306347 ], [ 80.289515479350939, 13.085950743466086 ], [ 80.289545611540504, 13.086073445543136 ], [ 80.289687866053939, 13.086685900655349 ], [ 80.289691847387274, 13.086764223156104 ], [ 80.289868888261807, 13.087342769234056 ], [ 80.289928338767282, 13.087505738162298 ], [ 80.289930045566322, 13.087514762725222 ] ] } },
{ "type": "Feature", "properties": { "objectid": 8, "zone": "04", "ward": "035", "road_name": "G.N.T Road", "region": "North", "area_name": "Erukkencherry", "locality": "Erukkencherry", "road_id": "14021", "category": "Vechicular Subway", "st_length(shape)": 21.646444327976059 }, "geometry": { "type": "LineString", "coordinates": [ [ 80.242030681654398, 13.128716735015789 ], [ 80.241924412752894, 13.128558144813983 ] ] } },
{ "type": "Feature", "properties": { "objectid": 9, "zone": "08", "ward": "099", "road_name": "Gengu Subway Road", "region": "Central", "area_name": "Egmore(N099)", "locality": "Egmore(N099)", "road_id": "74040", "category": "Vechicular Subway", "st_length(shape)": 138.40667437992775 }, "geometry": { "type": "LineString", "coordinates": [ [ 80.251867687664713, 13.076817544230904 ], [ 80.251986294926596, 13.076304201076949 ], [ 80.252152275743327, 13.076336534874024 ], [ 80.252059218364749, 13.076848599556902 ] ] } },
{ "type": "Feature", "properties": { "objectid": 10, "zone": "12", "ward": "162", "road_name": "(Not Approved Street)100 Feet Road(Inner Ring Road)", "region": "South", "area_name": "THILLAI GANGANAGAR", "locality": "NANGANALLUR", "road_id": " ", "category": "Vechicular Subway", "st_length(shape)": 948.18746853106916 }, "geometry": { "type": "LineString", "coordinates": [ [ 80.19325876075078, 12.994770536893292 ], [ 80.19329474815936, 12.993069093931515 ], [ 80.193306039982488, 12.992405253420221 ], [ 80.193300530614863, 12.992222820388484 ], [ 80.193297731464426, 12.992145060542686 ], [ 80.193318107051695, 12.992068210129505 ], [ 80.193363395616728, 12.991943948868597 ], [ 80.193401662949526, 12.991878995745008 ], [ 80.193464341101858, 12.991809333380701 ], [ 80.193519150012264, 12.991758786248383 ], [ 80.193705909759856, 12.991642619801292 ], [ 80.194057936163489, 12.991416917306633 ], [ 80.194349360421441, 12.991222605423218 ], [ 80.194460030169495, 12.991400938306983 ], [ 80.194328047891347, 12.991477085168111 ], [ 80.193952542221098, 12.991720896243631 ], [ 80.193805863504878, 12.991815177894944 ], [ 80.193742287037296, 12.991860914255895 ], [ 80.19370021893252, 12.991894276208454 ], [ 80.19358177336737, 12.992008740916377 ], [ 80.193557251156733, 12.992047900090585 ], [ 80.193527633701834, 12.99215402731258 ], [ 80.193514789589898, 12.992202791339597 ], [ 80.193503787922609, 12.99228601140557 ], [ 80.193501949969544, 12.992552991349577 ], [ 80.193495786628361, 12.992951058421569 ], [ 80.193491867278794, 12.993258222503604 ], [ 80.193478912674081, 12.993946221121524 ], [ 80.19347634349235, 12.994439992497101 ], [ 80.193475577229421, 12.994677310237703 ], [ 80.19347134885939, 12.994777775706577 ], [ 80.193258635884959, 12.994771373689632 ] ] } },
{ "type": "Feature", "properties": { "objectid": 11, "zone": "06", "ward": "071", "road_name": "DR. AMBEDKAR COLLEGE ROAD", "region": "Central", "area_name": "Pulianthope(N071)", "locality": "Ambedkar Nagar(N071)", "road_id": "84920", "category": "Vechicular Subway", "st_length(shape)": 98.678245244669483 }, "geometry": { "type": "LineString", "coordinates": [ [ 80.259645170240574, 13.109468028206514 ], [ 80.259776903685434, 13.109490655843471 ], [ 80.259761034047614, 13.109410944223869 ], [ 80.259800032609036, 13.109182663280045 ], [ 80.25969808909565, 13.109156695227659 ], [ 80.259674662829681, 13.109399930931525 ], [ 80.259645780196664, 13.109467850601021 ] ] } },
{ "type": "Feature", "properties": { "objectid": 12, "zone": "10", "ward": "132", "road_name": "Rangaraja Puram Main Road", "region": "Central", "area_name": "Kodambakkam", "locality": "Rangarajapuram(N132)", "road_id": "75726", "category": "Vechicular Subway", "st_length(shape)": 42.992275355306511 }, "geometry": { "type": "LineString", "coordinates": [ [ 80.229189099377876, 13.045912082883241 ], [ 80.229564838610088, 13.045825083637553 ] ] } },
{ "type": "Feature", "properties": { "objectid": 13, "zone": "10", "ward": "133", "road_name": "Duraisamy Road", "region": "Central", "area_name": "T.Nagar(N133)", "locality": "T.Nagar(N133)", "road_id": "75999", "category": "Vechicular Subway", "st_length(shape)": 269.08006555399078 }, "geometry": { "type": "LineString", "coordinates": [ [ 80.228854158032604, 13.041213499597131 ], [ 80.228943135263208, 13.041197305021011 ], [ 80.228990724413677, 13.04118719183367 ], [ 80.229993667377272, 13.040965604759117 ], [ 80.229977606398293, 13.040890949473571 ], [ 80.228974050783691, 13.04110949198102 ], [ 80.228925411502644, 13.041121652138649 ], [ 80.22885479763309, 13.041139305588461 ], [ 80.228835539550033, 13.041143849347502 ] ] } },
{ "type": "Feature", "properties": { "objectid": 14, "zone": "10", "ward": "133", "road_name": "Madley Road", "region": "Central", "area_name": "T.Nagar(N133)", "locality": "T.Nagar(N133)", "road_id": "76091", "category": "Vechicular Subway", "st_length(shape)": 315.08420072959325 }, "geometry": { "type": "LineString", "coordinates": [ [ 80.227115246018002, 13.035328869556235 ], [ 80.227221761057862, 13.035315681668072 ], [ 80.227296880876892, 13.035304237111557 ], [ 80.227298425979171, 13.035303965809849 ], [ 80.227363383157382, 13.035292550133292 ], [ 80.227367968158561, 13.035291744104606 ], [ 80.227526201904297, 13.035262299113009 ], [ 80.227707040855819, 13.035230771220222 ], [ 80.227759983965413, 13.035222443129957 ], [ 80.227791213896282, 13.03521738641421 ], [ 80.227834044670686, 13.035215006834745 ], [ 80.227899479752622, 13.035215898630065 ], [ 80.228054740074768, 13.035224227595721 ], [ 80.22819691284154, 13.035233745038022 ], [ 80.228281978807331, 13.035241478014305 ], [ 80.228463115101235, 13.035253971023788 ], [ 80.228473213063339, 13.035175593678732 ], [ 80.228064934156592, 13.03514546079173 ], [ 80.227912759547465, 13.035137542276976 ], [ 80.227820039037113, 13.035137265724044 ], [ 80.227754630006331, 13.035142812535153 ], [ 80.22735619573676, 13.035214351334524 ], [ 80.227200550935706, 13.03523940561869 ], [ 80.227094344017971, 13.035253208753327 ] ] } },
{ "type": "Feature", "properties": { "objectid": 15, "zone": "10", "ward": "142", "road_name": "Alandur Road  (I.R. = 250m)", "region": "Central", "area_name": "Saidapet", "locality": "West Saidapet", "road_id": "18067", "category": "Vechicular Subway", "st_length(shape)": 294.00687972497559 }, "geometry": { "type": "LineString", "coordinates": [ [ 80.221700113450439, 13.020531817663885 ], [ 80.221853100136585, 13.020618073112077 ], [ 80.222010532585088, 13.020706909549377 ], [ 80.222278315879706, 13.020860809661308 ], [ 80.222546897776596, 13.021010858721269 ], [ 80.222799779817308, 13.021155208278271 ], [ 80.222739104908058, 13.021037892433576 ], [ 80.222671637836939, 13.020998131310071 ], [ 80.22237062585998, 13.020830518368307 ], [ 80.222020723073655, 13.020631419322388 ], [ 80.221733576593081, 13.02047001231244 ], [ 80.221700113450439, 13.020531817663885 ] ] } },
{ "type": "Feature", "properties": { "objectid": 16, "zone": "10", "ward": "142", "road_name": "Karaneeswarar Koil Street", "region": "Central", "area_name": "Saidapet", "locality": "West Saidapet", "road_id": "12006", "category": "Vechicular Subway", "st_length(shape)": 40.253421838205341 }, "geometry": { "type": "LineString", "coordinates": [ [ 80.222803363196959, 13.021074083540018 ], [ 80.222861608163356, 13.021187270970273 ], [ 80.222895963333059, 13.021206303432667 ], [ 80.2229059687687, 13.021210754784612 ], [ 80.222853975178396, 13.021102415192303 ], [ 80.222803363196959, 13.021074083540018 ] ] } },
{ "type": "Feature", "properties": { "objectid": 17, "zone": "10", "ward": "142", "road_name": "Bazaar Road", "region": "Central", "area_name": "Saidapet", "locality": "Saidapet", "road_id": "14141", "category": "Vechicular Subway", "st_length(shape)": 38.211594532160376 }, "geometry": { "type": "LineString", "coordinates": [ [ 80.223215702488787, 13.021304908823852 ], [ 80.223178761967674, 13.02128422921178 ], [ 80.223231409531536, 13.021392138118321 ], [ 80.223274572682598, 13.02141605076905 ], [ 80.223215702488787, 13.021304908823852 ] ] } },
{ "type": "Feature", "properties": { "objectid": 18, "zone": "10", "ward": "142", "road_name": "Bazaar Road", "region": "Central", "area_name": "Saidapet", "locality": "Saidapet", "road_id": "14141", "category": "Vechicular Subway", "st_length(shape)": 96.132583150197803 }, "geometry": { "type": "LineString", "coordinates": [ [ 80.223625738500218, 13.021526901217619 ], [ 80.223419187968631, 13.021418818201802 ], [ 80.223289046338465, 13.021345965218048 ], [ 80.223349528109921, 13.021457574510057 ], [ 80.223376711130427, 13.021472634347546 ], [ 80.223594434907525, 13.021588199555747 ], [ 80.223625738500218, 13.021526901217619 ] ] } },
{ "type": "Feature", "properties": { "objectid": 19, "zone": "10", "ward": "142", "road_name": "Bazaar Road", "region": "Central", "area_name": "Saidapet", "locality": "Saidapet", "road_id": "14141", "category": "Vechicular Subway", "st_length(shape)": 158.07483209262892 }, "geometry": { "type": "LineString", "coordinates": [ [ 80.22360671936903, 13.021594719034583 ], [ 80.224167100121349, 13.021892162525102 ], [ 80.224199264300097, 13.021827012443273 ], [ 80.2236378226374, 13.021533223774563 ], [ 80.22360671936903, 13.021594719034583 ] ] } },
{ "type": "Feature", "properties": { "objectid": 20, "zone": "10", "ward": "142", "road_name": "Jones Road (East)", "region": "Central", "area_name": "Saidapet", "locality": "Saidapet", "road_id": "5864", "category": "Vechicular Subway", "st_length(shape)": 142.89038255236531 }, "geometry": { "type": "LineString", "coordinates": [ [ 80.224558151137572, 13.025318442439229 ], [ 80.224878366400375, 13.025321624674197 ], [ 80.225146258391163, 13.025324054235277 ], [ 80.225145836182961, 13.025270659898561 ], [ 80.224992586290469, 13.025272193252993 ], [ 80.224704266610118, 13.025267818116655 ], [ 80.224558886857793, 13.025266165734671 ], [ 80.224558151137572, 13.025318442439229 ] ] } },
{ "type": "Feature", "properties": { "objectid": 21, "zone": "10", "ward": "142", "road_name": "Jones Road (East)", "region": "Central", "area_name": "Saidapet", "locality": "Saidapet", "road_id": "5864", "category": "Vechicular Subway", "st_length(shape)": 129.49376722589926 }, "geometry": { "type": "LineString", "coordinates": [ [ 80.22518896340145, 13.025270332572896 ], [ 80.22518938650795, 13.0253237260345 ], [ 80.225314562251214, 13.025323631512677 ], [ 80.225348965929967, 13.025322329211905 ], [ 80.225511189992176, 13.025315318842786 ], [ 80.225667680107932, 13.025308524648372 ], [ 80.225719763529781, 13.025306689349406 ], [ 80.225716688596577, 13.02525842894601 ], [ 80.225660065089272, 13.025260837502845 ], [ 80.225536073325529, 13.025264331310586 ], [ 80.225408729049192, 13.025270392086647 ], [ 80.225311017499109, 13.025272910918911 ], [ 80.225240069456277, 13.025272698244736 ], [ 80.22518896340145, 13.025270332572896 ] ] } },
{ "type": "Feature", "properties": { "objectid": 22, "zone": "10", "ward": "142", "road_name": "Jones Road", "region": "Central", "area_name": "Saidapet", "locality": "West Saidapet", "road_id": "5773", "category": "Vechicular Subway", "st_length(shape)": 278.93468069214947 }, "geometry": { "type": "LineString", "coordinates": [ [ 80.224102721458209, 13.025298577975434 ], [ 80.222897766251847, 13.02518118444952 ], [ 80.222903091464858, 13.025131912287227 ], [ 80.224091099055059, 13.025251348558875 ], [ 80.224102849018962, 13.025298276030684 ] ] } }
]
}
